{
  "type": "FeatureCollection",
  "name": "common focal areas",
  "visible": true,
  "style": {
    "smoothFactor": 2,
    "fillColor": "#a33d34",
    "fillOpacity": 0.2,
    "color": "#a33d34",
    "weight": 2,
    "opacity": 0.6
  },
  "features": [
    {
      "type": "Feature",
      "geometry": {
        "type": "Polygon",
        "coordinates": [
          [
            [131.292337, 31.698214],
            [132.818399, 31.257862],
            [132.959879, 31.472975],
            [133.139676, 31.659155],
            [133.392433, 31.82292],
            [133.656013, 31.951691],
            [134.117425, 32.082005],
            [134.573945, 32.223888],
            [134.917965, 32.446295],
            [135.083593, 32.573399],
            [135.237215, 32.648536],
            [135.392489, 32.663834],
            [135.572197, 32.649981],
            [136.478655, 32.852633],
            [137.224476, 33.170151],
            [137.867028, 33.534358],
            [138.150183, 33.756192],
            [138.356807, 33.959664],
            [138.457376, 34.195931],
            [138.521055, 34.494934],
            [138.566952, 35.088574],
            [138.498271, 35.453939],
            [138.211138, 35.622041],
            [137.947429, 35.55681],
            [137.51133, 35.238658],
            [136.788458, 35.126121],
            [136.673716, 35.032221],
            [136.524552, 34.787577],
            [135.950844, 34.334015],
            [135.5263, 34.058793],
            [135.227972, 34.039779],
            [134.929644, 34.134806],
            [134.847201, 34.236465],
            [134.803705, 34.288141],
            [134.755272, 34.330295],
            [134.700675, 34.339305],
            [134.617239, 34.330954],
            [134.388906, 34.300147],
            [134.021189, 34.257698],
            [133.645731, 34.210669],
            [133.28884, 34.125308],
            [132.844006, 33.959583],
            [132.416804, 33.773136],
            [131.739829, 33.112506],
            [131.303811, 32.204472],
            [131.292337, 31.698214]
          ]
        ]
      },
      "properties": {
        "magnitude": 9.1,
        "description": "Größter, prognostizierter Fall eines Megathrust Erdbebens. Mit einer Magnitude von 9,1 würden Beben und Tsunami deutlich weiter ins Landesinnere vordringen können.",
        "ruptureGroup": "Nankai + Tokai (größtes)",
        "name": "A - E"
      },
      "id": "1653d91037bf378439a8e32979375bfb"
    },
    {
      "type": "Feature",
      "geometry": {
        "type": "Polygon",
        "coordinates": [
          [
            [131.5805, 31.613273],
            [132.176257, 31.443077],
            [132.40869, 31.865319],
            [133.201537, 32.245126],
            [134.051837, 32.613672],
            [134.419535, 32.79738],
            [134.532958, 32.924731],
            [134.58713, 32.990847],
            [134.637855, 33.057786],
            [134.683817, 33.230963],
            [134.856175, 33.307821],
            [135.246853, 33.125173],
            [135.475669, 33.114784],
            [135.693734, 33.127611],
            [135.814071, 33.134329],
            [136.074172, 33.163657],
            [136.291891, 33.253426],
            [136.483109, 33.356382],
            [137.269189, 33.767545],
            [137.902588, 34.117095],
            [138.139635, 34.340416],
            [138.420887, 34.608005],
            [138.545331, 34.803929],
            [138.567064, 35.086136],
            [138.532206, 35.273189],
            [138.498669, 35.45292],
            [138.339529, 35.545942],
            [138.199922, 35.319663],
            [137.855206, 35.056721],
            [137.476018, 34.849528],
            [137.050868, 34.745735],
            [136.798076, 34.556686],
            [136.533794, 34.281801],
            [136.143116, 33.93931],
            [135.637532, 33.700654],
            [135.154929, 33.748439],
            [134.511459, 34.025062],
            [134.086309, 33.967904],
            [133.454329, 33.748439],
            [132.477633, 33.125173],
            [132.052483, 32.681398],
            [131.673295, 32.070026],
            [131.5805, 31.613273]
          ]
        ]
      },
      "properties": {
        "magnitude": 8.7,
        "description": "Prognostiziertes Megathrust Erdbebens bei einer Magnitude von 8,7 über alle Risszonen. Weite Teile des Südostens Japans würden in diesem Fall von Beben und Tsunamiwellen erfasst werden.",
        "ruptureGroup": "Nankai + Tokai",
        "name": "A - E"
      },
      "id": "98a6f5630216dbe9e21d4d36b64ae2fa"
    },
    {
      "type": "Feature",
      "geometry": {
        "type": "Polygon",
        "coordinates": [
          [
            [132.474196, 33.124722],
            [133.029342, 32.162208],
            [133.20107, 32.245081],
            [133.374183, 32.320044],
            [133.721853, 32.472785],
            [134.088659, 32.631299],
            [134.420087, 32.794229],
            [134.564287, 32.960308],
            [134.638765, 33.057116],
            [134.662604, 33.153845],
            [134.662541, 33.153937],
            [134.683057, 33.230864],
            [134.856901, 33.309369],
            [134.970319, 33.254967],
            [135.116865, 33.187336],
            [135.247946, 33.12663],
            [135.477532, 33.114831],
            [135.81171, 33.134133],
            [136.076748, 33.163077],
            [136.292506, 33.255339],
            [135.934815, 33.84173],
            [135.635223, 33.700212],
            [135.419915, 33.720779],
            [135.158794, 33.748122],
            [134.507167, 34.026718],
            [134.103896, 33.970967],
            [134.103933, 33.970914],
            [133.453952, 33.748531],
            [132.474196, 33.124722]
          ]
        ]
      },
      "properties": {
        "ruptureGroup": "Nankai",
        "magnitude": 8.5,
        "description": "Prognostiziertes Fokalgebiet bei einem Nankai Erdbeben der Magnitude 8.5. Weite Teile der Insel Shikoku würden in diesem Fall von der Katastrophe erfasst. Manche Städte bereiten sich hier auf Tsunamiwellen vor, die bis zu 34 Meter hoch werden können.",
        "name": "A + B"
      }
    },
    {
      "type": "Feature",
      "geometry": {
        "type": "Polygon",
        "coordinates": [
          [
            [135.934103, 33.840304],
            [136.29302, 33.25491],
            [137.374093, 33.818264],
            [137.374096, 33.81826],
            [137.905555, 34.117975],
            [138.421997, 34.610591],
            [137.908281, 35.097392],
            [137.855462, 35.05687],
            [137.621298, 34.929074],
            [137.477118, 34.850279],
            [137.250617, 34.793933],
            [137.049294, 34.744665],
            [136.993121, 34.703847],
            [136.829658, 34.579445],
            [136.829662, 34.579439],
            [136.796158, 34.556075],
            [136.566159, 34.315133],
            [136.294322, 34.071433],
            [136.145985, 33.940573],
            [135.934103, 33.840304]
          ]
        ]
      },
      "properties": {
        "ruptureGroup": "Tonankai",
        "magnitude": 8.2,
        "description": "Prognostiziertes Fokalgebiet bei einem Nankai Erdbeben der Magnitude 8.2. Einige größere Städte an der Ostüste, könnten in diesem Fall, von Beben und Tsunami erfasst werden. Alternativ könnte die ",
        "name": "C + D"
      }
    }
  ]
}
