{
  "type": "FeatureCollection",
  "style": {
    "smoothFactor": 2,
    "dashArray": [10],
    "color": "white",
    "fillOpacity": 0,
    "weight": 3.5,
    "opacity": 1
  },
  "features": [
    {
      "type": "Feature",
      "geometry": {
        "type": "Polygon",
        "coordinates": [
          [
            [132.474196, 33.124722],
            [133.029342, 32.162208],
            [133.20107, 32.245081],
            [133.374183, 32.320044],
            [133.721853, 32.472785],
            [134.088659, 32.631299],
            [134.420087, 32.794229],
            [134.564287, 32.960308],
            [134.638765, 33.057116],
            [134.662604, 33.153845],
            [134.104004, 33.970938],
            [133.453952, 33.748531],
            [132.474196, 33.124722]
          ]
        ]
      },
      "properties": {
        "ruptureGroup": "Nankai",
        "name": "Risszone A"
      },
      "id": "c1a7b75be3850f49bef4ba6d742e0779"
    },
    {
      "type": "Feature",
      "geometry": {
        "type": "Polygon",
        "coordinates": [
          [
            [134.106007, 33.970889],
            [134.661675, 33.154623],
            [134.683057, 33.230864],
            [134.856901, 33.309369],
            [134.970319, 33.254967],
            [135.116865, 33.187336],
            [135.247946, 33.12663],
            [135.477532, 33.114831],
            [135.81171, 33.134133],
            [136.076748, 33.163077],
            [136.292506, 33.255339],
            [135.934815, 33.84173],
            [135.635223, 33.700212],
            [135.419915, 33.720779],
            [135.158794, 33.748122],
            [134.507167, 34.026718],
            [134.106007, 33.970889]
          ]
        ]
      },
      "properties": {
        "ruptureGroup": "Nankai",
        "name": "Risszone B"
      },
      "id": "5f6b8c6f7550508a865abc84c68f90bd"
    },
    {
      "type": "Feature",
      "geometry": {
        "type": "Polygon",
        "coordinates": [
          [
            [135.934103, 33.840304],
            [136.29302, 33.25491],
            [137.373947, 33.818044],
            [137.110768, 34.187348],
            [137.042412, 34.285617],
            [136.966931, 34.387087],
            [136.829723, 34.579481],
            [136.796158, 34.556075],
            [136.566159, 34.315133],
            [136.294322, 34.071433],
            [136.145985, 33.940573],
            [135.934103, 33.840304]
          ]
        ]
      },
      "properties": {
        "ruptureGroup": "Tonankai",
        "name": "Risszone C"
      },
      "id": "ece3e0d6fc00a3d126b112b2109a04e4"
    },
    {
      "type": "Feature",
      "geometry": {
        "type": "Polygon",
        "coordinates": [
          [
            [137.374096, 33.81826],
            [137.905555, 34.117975],
            [138.421997, 34.610591],
            [137.908281, 35.097392],
            [137.855462, 35.05687],
            [137.621298, 34.929074],
            [137.477118, 34.850279],
            [137.250617, 34.793933],
            [137.049294, 34.744665],
            [136.993121, 34.703847],
            [136.830894, 34.579497],
            [137.374096, 33.81826]
          ]
        ]
      },
      "properties": {
        "ruptureGroup": "Tonankai",
        "name": "Risszone D"
      },
      "id": "bbd41381054640eddfa28fc54c0461dc"
    },
    {
      "type": "Feature",
      "geometry": {
        "type": "Polygon",
        "coordinates": [
          [
            [137.908756, 35.097392],
            [138.422193, 34.611506],
            [138.545326, 34.804637],
            [138.567845, 35.085631],
            [138.531846, 35.279764],
            [138.499126, 35.452941],
            [138.339022, 35.546148],
            [138.211973, 35.340291],
            [138.199144, 35.318196],
            [138.129301, 35.26623],
            [138.049196, 35.204232],
            [137.908756, 35.097392]
          ]
        ]
      },
      "properties": {
        "ruptureGroup": "Tokai",
        "name": "Risszone E"
      },
      "id": "4d4468ae110209c3874740ad57d9d163"
    }
  ]
}
